{
  "type": "FeatureCollection",
  "features": [
    {
      "type": "Feature",
      "properties": {
        "norad_id": 29945,
        "name": "FENGYUN 1C DEB",
        "group": "fengyun-1c-debris",
        "lat": 80.81064987989711,
        "lon": -49.53527781673583,
        "alt_km": 879.0905905505706,
        "timestamp": "2025-12-26T06:43:29.784133+00:00",
        "meta_object_name": "FENGYUN 1C DEB",
        "meta_object_id": "1999-025JT",
        "meta_epoch": "2025-12-25T23:46:56.282880",
        "meta_mean_motion": 14.05579295,
        "meta_eccentricity": 0.00303189,
        "meta_inclination": 98.7911,
        "meta_ra_of_asc_node": 23.2341,
        "meta_arg_of_pericenter": 324.9364,
        "meta_mean_anomaly": 99.1561,
        "meta_ephemeris_type": 0,
        "meta_classification_type": "U",
        "meta_norad_cat_id": 29945,
        "meta_element_set_no": 999,
        "meta_rev_at_epoch": 97164,
        "meta_bstar": 7.701379e-05,
        "meta_mean_motion_dot": 8.3e-07,
        "meta_mean_motion_ddot": 0,
        "tle_line1": "1 29945U 99025JT  25359.99092920  .00000083  00000+0  77014-4 0  9991",
        "tle_line2": "2 29945  98.7911  23.2341 0030318 324.9364  99.1561 14.05579295971642"
      },
      "geometry": {
        "type": "Point",
        "coordinates": [
          -49.53527781673583,
          80.81064987989711
        ]
      }
    },
    {
      "type": "Feature",
      "properties": {
        "norad_id": 29946,
        "name": "FENGYUN 1C DEB",
        "group": "fengyun-1c-debris",
        "lat": -57.4624268526191,
        "lon": 158.1364341922104,
        "alt_km": 848.9626094010791,
        "timestamp": "2025-12-26T06:43:29.784143+00:00",
        "meta_object_name": "FENGYUN 1C DEB",
        "meta_object_id": "1999-025JU",
        "meta_epoch": "2025-12-25T23:01:38.468064",
        "meta_mean_motion": 14.08266669,
        "meta_eccentricity": 0.00801181,
        "meta_inclination": 98.7808,
        "meta_ra_of_asc_node": 351.8445,
        "meta_arg_of_pericenter": 306.0344,
        "meta_mean_anomaly": 108.1508,
        "meta_ephemeris_type": 0,
        "meta_classification_type": "U",
        "meta_norad_cat_id": 29946,
        "meta_element_set_no": 999,
        "meta_rev_at_epoch": 97233,
        "meta_bstar": 0.00019269721,
        "meta_mean_motion_dot": 2.95e-06,
        "meta_mean_motion_ddot": 0,
        "tle_line1": "1 29946U 99025JU  25359.95947301  .00000295  00000+0  19270-3 0  9994",
        "tle_line2": "2 29946  98.7808 351.8445 0080118 306.0344 108.1508 14.08266669972335"
      },
      "geometry": {
        "type": "Point",
        "coordinates": [
          158.1364341922104,
          -57.4624268526191
        ]
      }
    },
    {
      "type": "Feature",
      "properties": {
        "norad_id": 29947,
        "name": "FENGYUN 1C DEB",
        "group": "fengyun-1c-debris",
        "lat": -33.14261755219761,
        "lon": 36.26857937166219,
        "alt_km": 902.6904029325351,
        "timestamp": "2025-12-26T06:43:29.784153+00:00",
        "meta_object_name": "FENGYUN 1C DEB",
        "meta_object_id": "1999-025JV",
        "meta_epoch": "2025-12-25T22:52:55.081920",
        "meta_mean_motion": 14.03083134,
        "meta_eccentricity": 0.00410923,
        "meta_inclination": 98.8367,
        "meta_ra_of_asc_node": 30.1215,
        "meta_arg_of_pericenter": 84.4799,
        "meta_mean_anomaly": 32.7092,
        "meta_ephemeris_type": 0,
        "meta_classification_type": "U",
        "meta_norad_cat_id": 29947,
        "meta_element_set_no": 999,
        "meta_rev_at_epoch": 96935,
        "meta_bstar": 0.00017921378,
        "meta_mean_motion_dot": 2.38e-06,
        "meta_mean_motion_ddot": 0,
        "tle_line1": "1 29947U 99025JV  25359.95341530  .00000238  00000+0  17921-3 0  9995",
        "tle_line2": "2 29947  98.8367  30.1215 0041092  84.4799  32.7092 14.03083134969355"
      },
      "geometry": {
        "type": "Point",
        "coordinates": [
          36.26857937166219,
          -33.14261755219761
        ]
      }
    },
    {
      "type": "Feature",
      "properties": {
        "norad_id": 29948,
        "name": "FENGYUN 1C DEB",
        "group": "fengyun-1c-debris",
        "lat": -14.328524377707248,
        "lon": -11.611014566767706,
        "alt_km": 929.897819067708,
        "timestamp": "2025-12-26T06:43:29.784222+00:00",
        "meta_object_name": "FENGYUN 1C DEB",
        "meta_object_id": "1999-025JW",
        "meta_epoch": "2025-12-25T22:31:07.309920",
        "meta_mean_motion": 14.06197665,
        "meta_eccentricity": 0.00842089,
        "meta_inclination": 98.8252,
        "meta_ra_of_asc_node": 345.7815,
        "meta_arg_of_pericenter": 196.253,
        "meta_mean_anomaly": 218.8975,
        "meta_ephemeris_type": 0,
        "meta_classification_type": "U",
        "meta_norad_cat_id": 29948,
        "meta_element_set_no": 999,
        "meta_rev_at_epoch": 97162,
        "meta_bstar": -1.1390241e-05,
        "meta_mean_motion_dot": -6.2e-07,
        "meta_mean_motion_ddot": 0,
        "tle_line1": "1 29948U 99025JW  25359.93827905 -.00000062  00000+0 -11390-4 0  9991",
        "tle_line2": "2 29948  98.8252 345.7815 0084208 196.2530 218.8975 14.06197665971629"
      },
      "geometry": {
        "type": "Point",
        "coordinates": [
          -11.611014566767706,
          -14.328524377707248
        ]
      }
    },
    {
      "type": "Feature",
      "properties": {
        "norad_id": 29949,
        "name": "FENGYUN 1C DEB",
        "group": "fengyun-1c-debris",
        "lat": -30.50977898587963,
        "lon": 20.754908162484693,
        "alt_km": 868.6154094086087,
        "timestamp": "2025-12-26T06:43:29.784235+00:00",
        "meta_object_name": "FENGYUN 1C DEB",
        "meta_object_id": "1999-025JX",
        "meta_epoch": "2025-12-25T14:22:14.198016",
        "meta_mean_motion": 14.06828241,
        "meta_eccentricity": 0.0023045,
        "meta_inclination": 98.7616,
        "meta_ra_of_asc_node": 14.8808,
        "meta_arg_of_pericenter": 267.8323,
        "meta_mean_anomaly": 211.8857,
        "meta_ephemeris_type": 0,
        "meta_classification_type": "U",
        "meta_norad_cat_id": 29949,
        "meta_element_set_no": 999,
        "meta_rev_at_epoch": 97288,
        "meta_bstar": -2.9245e-05,
        "meta_mean_motion_dot": -9.2e-07,
        "meta_mean_motion_ddot": 0,
        "tle_line1": "1 29949U 99025JX  25359.59877544 -.00000092  00000+0 -29245-4 0  9999",
        "tle_line2": "2 29949  98.7616  14.8808 0023045 267.8323 211.8857 14.06828241972888"
      },
      "geometry": {
        "type": "Point",
        "coordinates": [
          20.754908162484693,
          -30.50977898587963
        ]
      }
    },
    {
      "type": "Feature",
      "properties": {
        "norad_id": 29950,
        "name": "FENGYUN 1C DEB",
        "group": "fengyun-1c-debris",
        "lat": -24.17668966049233,
        "lon": 34.93806670430075,
        "alt_km": 879.7104431474518,
        "timestamp": "2025-12-26T06:43:29.784245+00:00",
        "meta_object_name": "FENGYUN 1C DEB",
        "meta_object_id": "1999-025JY",
        "meta_epoch": "2025-12-25T22:53:07.082016",
        "meta_mean_motion": 14.10340017,
        "meta_eccentricity": 0.00328481,
        "meta_inclination": 98.7396,
        "meta_ra_of_asc_node": 30.6608,
        "meta_arg_of_pericenter": 203.9653,
        "meta_mean_anomaly": 273.83,
        "meta_ephemeris_type": 0,
        "meta_classification_type": "U",
        "meta_norad_cat_id": 29950,
        "meta_element_set_no": 999,
        "meta_rev_at_epoch": 97477,
        "meta_bstar": 0.00011246738,
        "meta_mean_motion_dot": 1.58e-06,
        "meta_mean_motion_ddot": 0,
        "tle_line1": "1 29950U 99025JY  25359.95355419  .00000158  00000+0  11247-3 0  9996",
        "tle_line2": "2 29950  98.7396  30.6608 0032848 203.9653 273.8300 14.10340017974773"
      },
      "geometry": {
        "type": "Point",
        "coordinates": [
          34.93806670430075,
          -24.17668966049233
        ]
      }
    },
    {
      "type": "Feature",
      "properties": {
        "norad_id": 29953,
        "name": "FENGYUN 1C DEB",
        "group": "fengyun-1c-debris",
        "lat": -34.88797002202362,
        "lon": 160.38654122582759,
        "alt_km": 856.8616248326362,
        "timestamp": "2025-12-26T06:43:29.784256+00:00",
        "meta_object_name": "FENGYUN 1C DEB",
        "meta_object_id": "1999-025KB",
        "meta_epoch": "2025-12-25T23:03:20.763072",
        "meta_mean_motion": 13.90860859,
        "meta_eccentricity": 0.01056949,
        "meta_inclination": 98.9388,
        "meta_ra_of_asc_node": 346.3797,
        "meta_arg_of_pericenter": 230.3026,
        "meta_mean_anomaly": 186.1301,
        "meta_ephemeris_type": 0,
        "meta_classification_type": "U",
        "meta_norad_cat_id": 29953,
        "meta_element_set_no": 999,
        "meta_rev_at_epoch": 96046,
        "meta_bstar": 0.00038374984,
        "meta_mean_motion_dot": 4.6e-06,
        "meta_mean_motion_ddot": 0,
        "tle_line1": "1 29953U 99025KB  25359.96065698  .00000460  00000+0  38375-3 0  9994",
        "tle_line2": "2 29953  98.9388 346.3797 0105694 230.3026 186.1301 13.90860859960469"
      },
      "geometry": {
        "type": "Point",
        "coordinates": [
          160.38654122582759,
          -34.88797002202362
        ]
      }
    }
  ]
}